GLOBALSTAR M045         
1 25676U 99019A   25364.58566072 -.00000104  00000+0 -88359-4 0  9996
2 25676  51.9968 105.4864 0000751 137.7523 323.8643 12.27070429217503
GLOBALSTAR M019         
1 25677U 99019B   25365.08946711  .00000026  00000+0  12116-2 0  9992
2 25677  51.9869 248.2771 0002001  28.8999 140.0759 12.13881343209052
GLOBALSTAR M044         
1 25678U 99019C   25365.04529681 -.00000007  00000+0  10738-2 0  9990
2 25678  51.9943 224.3855 0007161  60.8448  90.1244 11.90263616194767
GLOBALSTAR M042         
1 25679U 99019D   25365.03225906 -.00000028  00000+0  60279-3 0  9992
2 25679  51.9988 215.2514 0003177   8.2775 145.4392 12.22095615209325
GLOBALSTAR M025         
1 25770U 99031A   25365.17599706 -.00000062  00000+0  15640-3 0  9995
2 25770  51.9834  62.9308 0002722 117.5795 271.3761 11.22559572503834
GLOBALSTAR M049         
1 25771U 99031B   25364.64991830 -.00000008  00000+0  19777-2 0  9995
2 25771  51.9871 108.7849 0002409   5.8070 354.2754 11.12123734139285
GLOBALSTAR M047         
1 25772U 99031C   25365.16329612 -.00000074  00000+0 -12565-3 0  9990
2 25772  51.9843  85.7720 0016178 238.5360 121.3865 11.31931846493418
GLOBALSTAR M052         
1 25773U 99031D   25365.01946403 -.00000065  00000+0  13362-4 0  9994
2 25773  51.9826 213.8560 0003450 118.3665  33.8491 11.15063222500460
